{
  "type": "FeatureCollection",
  "features": [
    {
      "type": "Feature",
      "properties": {
        "norad_id": 41026,
        "name": "YAOGAN-28",
        "group": "resource",
        "lat": 17.847497666665856,
        "lon": -39.27088209860204,
        "alt_km": 491.19391517582335,
        "timestamp": "2025-12-26T23:26:41.810848+00:00",
        "meta_object_name": "YAOGAN-28",
        "meta_object_id": "2015-064A",
        "meta_epoch": "2025-12-26T18:00:45.793728",
        "meta_mean_motion": 15.24575383,
        "meta_eccentricity": 0.0012641,
        "meta_inclination": 97.2815,
        "meta_ra_of_asc_node": 138.1496,
        "meta_arg_of_pericenter": 81.6367,
        "meta_mean_anomaly": 278.6304,
        "meta_ephemeris_type": 0,
        "meta_classification_type": "U",
        "meta_norad_cat_id": 41026,
        "meta_element_set_no": 999,
        "meta_rev_at_epoch": 56438,
        "meta_bstar": 0.00034884,
        "meta_mean_motion_dot": 8.547e-05,
        "meta_mean_motion_ddot": 0,
        "tle_line1": "1 41026U 15064A   25360.75053002  .00008547  00000+0  34884-3 0  9990",
        "tle_line2": "2 41026  97.2815 138.1496 0012641  81.6367 278.6304 15.24575383564383"
      },
      "geometry": {
        "type": "Point",
        "coordinates": [
          -39.27088209860204,
          17.847497666665856
        ]
      }
    },
    {
      "type": "Feature",
      "properties": {
        "norad_id": 41038,
        "name": "YAOGAN-29",
        "group": "resource",
        "lat": -67.3325102054716,
        "lon": 43.92530696983868,
        "alt_km": 627.9132578094141,
        "timestamp": "2025-12-26T23:26:41.810858+00:00",
        "meta_object_name": "YAOGAN-29",
        "meta_object_id": "2015-069A",
        "meta_epoch": "2025-12-26T18:53:46.307328",
        "meta_mean_motion": 14.82897963,
        "meta_eccentricity": 9.67e-05,
        "meta_inclination": 98.0208,
        "meta_ra_of_asc_node": 24.003,
        "meta_arg_of_pericenter": 158.0938,
        "meta_mean_anomaly": 202.0316,
        "meta_ephemeris_type": 0,
        "meta_classification_type": "U",
        "meta_norad_cat_id": 41038,
        "meta_element_set_no": 999,
        "meta_rev_at_epoch": 54507,
        "meta_bstar": 6.1553e-05,
        "meta_mean_motion_dot": 4.45e-06,
        "meta_mean_motion_ddot": 0,
        "tle_line1": "1 41038U 15069A   25360.78734152  .00000445  00000+0  61553-4 0  9996",
        "tle_line2": "2 41038  98.0208  24.0030 0000967 158.0938 202.0316 14.82897963545072"
      },
      "geometry": {
        "type": "Point",
        "coordinates": [
          43.92530696983868,
          -67.3325102054716
        ]
      }
    },
    {
      "type": "Feature",
      "properties": {
        "norad_id": 41167,
        "name": "KENT RIDGE 1",
        "group": "resource",
        "lat": -13.964175873721045,
        "lon": -6.068832253967207,
        "alt_km": 498.6772823444189,
        "timestamp": "2025-12-26T23:26:41.810867+00:00",
        "meta_object_name": "KENT RIDGE 1",
        "meta_object_id": "2015-077B",
        "meta_epoch": "2025-12-26T12:55:02.392032",
        "meta_mean_motion": 15.21738831,
        "meta_eccentricity": 0.0008524,
        "meta_inclination": 14.9791,
        "meta_ra_of_asc_node": 108.7428,
        "meta_arg_of_pericenter": 325.4812,
        "meta_mean_anomaly": 34.4956,
        "meta_ephemeris_type": 0,
        "meta_classification_type": "U",
        "meta_norad_cat_id": 41167,
        "meta_element_set_no": 999,
        "meta_rev_at_epoch": 55474,
        "meta_bstar": 0.00016759,
        "meta_mean_motion_dot": 4.67e-05,
        "meta_mean_motion_ddot": 0,
        "tle_line1": "1 41167U 15077B   25360.53822213  .00004670  00000+0  16759-3 0  9998",
        "tle_line2": "2 41167  14.9791 108.7428 0008524 325.4812  34.4956 15.21738831554741"
      },
      "geometry": {
        "type": "Point",
        "coordinates": [
          -6.068832253967207,
          -13.964175873721045
        ]
      }
    },
    {
      "type": "Feature",
      "properties": {
        "norad_id": 41194,
        "name": "GAOFEN-4",
        "group": "resource",
        "lat": 0.18904258041463504,
        "lon": -166.91301185774827,
        "alt_km": 35775.51371514653,
        "timestamp": "2025-12-26T23:26:41.810879+00:00",
        "meta_object_name": "GAOFEN-4",
        "meta_object_id": "2015-083A",
        "meta_epoch": "2025-12-26T18:07:38.790048",
        "meta_mean_motion": 1.00269051,
        "meta_eccentricity": 0.000282,
        "meta_inclination": 0.204,
        "meta_ra_of_asc_node": 82.008,
        "meta_arg_of_pericenter": 94.4058,
        "meta_mean_anomaly": 296.6921,
        "meta_ephemeris_type": 0,
        "meta_classification_type": "U",
        "meta_norad_cat_id": 41194,
        "meta_element_set_no": 999,
        "meta_rev_at_epoch": 3680,
        "meta_bstar": 0,
        "meta_mean_motion_dot": -3.12e-06,
        "meta_mean_motion_ddot": 0,
        "tle_line1": "1 41194U 15083A   25360.75531007 -.00000312  00000+0  00000+0 0  9995",
        "tle_line2": "2 41194   0.2040  82.0080 0002820  94.4058 296.6921  1.00269051 36803"
      },
      "geometry": {
        "type": "Point",
        "coordinates": [
          -166.91301185774827,
          0.18904258041463504
        ]
      }
    },
    {
      "type": "Feature",
      "properties": {
        "norad_id": 41240,
        "name": "JASON-3",
        "group": "resource",
        "lat": 52.73463719391891,
        "lon": 163.65184731708692,
        "alt_km": 1309.943395862645,
        "timestamp": "2025-12-26T23:26:41.810889+00:00",
        "meta_object_name": "JASON-3",
        "meta_object_id": "2016-002A",
        "meta_epoch": "2025-12-26T17:32:20.973120",
        "meta_mean_motion": 12.87627205,
        "meta_eccentricity": 0.0007333,
        "meta_inclination": 66.0408,
        "meta_ra_of_asc_node": 128.4095,
        "meta_arg_of_pericenter": 271.6728,
        "meta_mean_anomaly": 88.3451,
        "meta_ephemeris_type": 0,
        "meta_classification_type": "U",
        "meta_norad_cat_id": 41240,
        "meta_element_set_no": 999,
        "meta_rev_at_epoch": 46504,
        "meta_bstar": 0.00021204,
        "meta_mean_motion_dot": -9e-08,
        "meta_mean_motion_ddot": 0,
        "tle_line1": "1 41240U 16002A   25360.73079830 -.00000009  00000+0  21204-3 0  9994",
        "tle_line2": "2 41240  66.0408 128.4095 0007333 271.6728  88.3451 12.87627205465043"
      },
      "geometry": {
        "type": "Point",
        "coordinates": [
          163.65184731708692,
          52.73463719391891
        ]
      }
    },
    {
      "type": "Feature",
      "properties": {
        "norad_id": 41335,
        "name": "SENTINEL-3A",
        "group": "resource",
        "lat": -3.1301374473823698,
        "lon": 66.26643469076006,
        "alt_km": 806.0999943350243,
        "timestamp": "2025-12-26T23:26:41.810898+00:00",
        "meta_object_name": "SENTINEL-3A",
        "meta_object_id": "2016-011A",
        "meta_epoch": "2025-12-26T18:24:37.421856",
        "meta_mean_motion": 14.26736057,
        "meta_eccentricity": 8.89e-05,
        "meta_inclination": 98.6296,
        "meta_ra_of_asc_node": 65.5838,
        "meta_arg_of_pericenter": 97.7597,
        "meta_mean_anomaly": 262.3685,
        "meta_ephemeris_type": 0,
        "meta_classification_type": "U",
        "meta_norad_cat_id": 41335,
        "meta_element_set_no": 999,
        "meta_rev_at_epoch": 51347,
        "meta_bstar": 7.7162e-05,
        "meta_mean_motion_dot": 1.43e-06,
        "meta_mean_motion_ddot": 0,
        "tle_line1": "1 41335U 16011A   25360.76709979  .00000143  00000+0  77162-4 0  9999",
        "tle_line2": "2 41335  98.6296  65.5838 0000889  97.7597 262.3685 14.26736057513475"
      },
      "geometry": {
        "type": "Point",
        "coordinates": [
          66.26643469076006,
          -3.1301374473823698
        ]
      }
    },
    {
      "type": "Feature",
      "properties": {
        "norad_id": 41556,
        "name": "ZIYUAN 3-02 (ZY 3-02)",
        "group": "resource",
        "lat": -81.27864305055735,
        "lon": -163.03586725727786,
        "alt_km": 506.9626888414314,
        "timestamp": "2025-12-26T23:26:41.810907+00:00",
        "meta_object_name": "ZIYUAN 3-02 (ZY 3-02)",
        "meta_object_id": "2016-033A",
        "meta_epoch": "2025-12-26T17:32:46.485312",
        "meta_mean_motion": 15.21254966,
        "meta_eccentricity": 0.0011564,
        "meta_inclination": 97.4023,
        "meta_ra_of_asc_node": 74.6632,
        "meta_arg_of_pericenter": 194.0874,
        "meta_mean_anomaly": 166.0041,
        "meta_ephemeris_type": 0,
        "meta_classification_type": "U",
        "meta_norad_cat_id": 41556,
        "meta_element_set_no": 999,
        "meta_rev_at_epoch": 53176,
        "meta_bstar": 0.00033517,
        "meta_mean_motion_dot": 7.433e-05,
        "meta_mean_motion_ddot": 0,
        "tle_line1": "1 41556U 16033A   25360.73109358  .00007433  00000+0  33517-3 0  9994",
        "tle_line2": "2 41556  97.4023  74.6632 0011564 194.0874 166.0041 15.21254966531767"
      },
      "geometry": {
        "type": "Point",
        "coordinates": [
          -163.03586725727786,
          -81.27864305055735
        ]
      }
    }
  ]
}